*******************************************************************************
 Revised: Jan 22, 2021            InSight (spacecraft)  / (Sun)            -189
                       https://mars.nasa.gov/insight/mission/overview/ 

 BACKGROUND:
  InSight, short for "Interior Exploration using Seismic Investigations, 
  Geodesy and Heat Transport", is a Mars lander designed to study the interior 
  of Mars: its crust, mantle, and core, determining the rate of Martian 
  tectonic activity and meteorite impacts.

 MISSION LAUNCH:
  Launched        : 2018-May-5 11:05 UTC 
  Launch location : Vandenberg Air Force Base, California
                    First interplanetary launch from west-coast/VAFB
  Mars arrival    : 2018-November-26 ~19:52:59 UTC (ERT), ~19:44:52 UTC (Mars)
  Landing site    : Elysium Planitia, Mars (more below)
  Mission duration: A little over 1 Mars year (~2 Earth years); 
                    708 Sols (Mars days), or 728 Earth days

 LAUNCH VEHICLE:
  Launch vehicle  : Atlas V-401
  Upper stage     : Centaur-2 
                     12.7 m long, 3.1 m wide
                     Restartable RL-10C engine
 CUBESATS:
  Centaur aft bulkhead carrier holds a CubeSat deployment system with two 
  redundant 6U mini-spacecraft called "Mars Cube One", or "MarCO" 
  (36.6 x 24.3 x 11.8 cm), 13.5 kg each (briefcase sized, 30 lbs.)

   https://www.jpl.nasa.gov/cubesat/missions/marco.php 

  These CubeSats will be released after leaving Earth orbit and proceed behind 
  InSight to Mars. They will be the first deep-space cubesats and will test 
  new, miniaturized communication equipment. If they make it to Mars, they may 
  relay back InSight data as it enters the Martian atmosphere and lands.   

 INSIGHT SPACECRAFT: composed of ... 
   Cruise Stage
   Entry-Descent-Landing System 
    aeroshell, parachute, descent vehicle
   Lander (stationary)

 INSIGHT LANDER PHYSICAL PROPERTIES:
  Length             : 6 meters with solar panels deployed ("wingspan")
  Width              : 1.56 meters (lander deck diameter)
  Deck height        : 83 to 108 centimeters
  Robotic arm length : 2.4 meters
  Mass               : 360 kilograms
  Electrical power   : Two solar panels, 2.2 meters each in diameter
  Science instruments: 3 (a seismometer, heat probe, radio science experiment)

  Heat probe is designed to burrow 10-16 feet deep into soil (3-5 meters).

 INSIGHT LANDER LANDING SITE:
  Western portion of Elysium Planitia 
  Acceptable 99% landing variance is ellipse 130 x 27 km
  Centered at 4.5 degrees north latitude, 135.9 degrees east longitude
  This is 600 kilometers from Curiosity's landing site at Gale Crater

  Achieved landing site: 135.623447 deg. E. long., 4.555681 deg. N. lat.

 SPACECRAFT TRAJECTORY: 
  Post-launch trajectory from InSight Navigation (JPL). A fit to tracking data 
  through landing.

  Trajectory here starts after Centaur launch stage separation (cruise phase).

  Trajectory files                           Start (TDB)           End (TDB) 
  --------------------------------------  -----------------   -----------------
  insight_cru_ops_v1                      2018-May-05 12:39   2018-Nov-26 19:40
  insight_edl_rec_v1                      2018-Nov-26 19:40   2018-Nov-26 19:46
  insight_atls_ops181206_v1               2018-Nov-26 19:46   2100-Jan-01 00:00
   + insight_ls_ops181206_iau2000_v1        
*******************************************************************************
 
 
*******************************************************************************
Ephemeris / WWW_USER Thu Sep  2 09:25:43 2021 Pasadena, USA      / Horizons
*******************************************************************************
Target body name: InSight (spacecraft) (-189)     {source: insight_merged}
Center body name: Sun (10)                        {source: DE441}
Center-site name: BODY CENTER
*******************************************************************************
Start time      : A.D. 2018-May-06 00:00:00.0000 TDB
Stop  time      : A.D. 2018-Nov-26 00:00:00.0000 TDB
Step-size       : 1440 minutes
*******************************************************************************
Center geodetic : 0.00000000,0.00000000,0.0000000 {E-lon(deg),Lat(deg),Alt(km)}
Center cylindric: 0.00000000,0.00000000,0.0000000 {E-lon(deg),Dxy(km),Dz(km)}
Center radii    : 696000.0 x 696000.0 x 696000.0 k{Equator, meridian, pole}    
Output units    : KM-S
Output type     : GEOMETRIC cartesian states
Output format   : 3 (position, velocity, LT, range, range-rate)
Reference frame : Ecliptic of J2000.0
*******************************************************************************
            JDTDB,            Calendar Date (TDB),                      X,                      Y,                      Z,                     VX,                     VY,                     VZ,                     LT,                     RG,                     RR,
**************************************************************************************************************************************************************************************************************************************************************************
$$SOE
2458244.500000000, A.D. 2018-May-06 00:00:00.0000, -1.062477982233846E+08, -1.071562310464293E+08, -5.339178914066404E+04,  2.292528225666292E+01, -2.336391310815902E+01, -1.526281828679959E+00,  5.033509311544884E+02,  1.509008128873928E+08,  4.500280506425588E-01,
2458245.500000000, A.D. 2018-May-07 00:00:00.0000, -1.042668633713852E+08, -1.091442250017026E+08, -1.769448917609230E+05,  2.300938132524946E+01, -2.273793387955080E+01, -1.372522798250484E+00,  5.034947759532884E+02,  1.509439364731956E+08,  5.488197496182684E-01,
2458246.500000000, A.D. 2018-May-08 00:00:00.0000, -1.022673376358371E+08, -1.110896666512486E+08, -2.932111572759002E+05,  2.328517462443379E+01, -2.230409495901326E+01, -1.325916124826355E+00,  5.036664125784154E+02,  1.509953918389253E+08,  6.412807102940373E-01,
2458247.500000000, A.D. 2018-May-09 00:00:00.0000, -1.002423908481914E+08, -1.129991668180102E+08, -4.067293798349947E+05,  2.359065802055480E+01, -2.189955338189783E+01, -1.303920101592722E+00,  5.038641512394445E+02,  1.510546723981568E+08,  7.307133572264092E-01,
2458248.500000000, A.D. 2018-May-10 00:00:00.0000, -9.819070989494830E+07, -1.148741117746022E+08, -5.187608577357605E+05,  2.390216910889476E+01, -2.150242319649445E+01, -1.290272153116954E+00,  5.040874880975737E+02,  1.511216271038173E+08,  8.190102100426609E-01,
2458249.500000000, A.D. 2018-May-11 00:00:00.0000, -9.611212902059339E+07, -1.167148016884182E+08, -6.297943625916094E+05,  2.421264980357094E+01, -2.110596853802852E+01, -1.280379233130386E+00,  5.043361485279583E+02,  1.511961736254497E+08,  9.064778746932026E-01,
2458250.500000000, A.D. 2018-May-12 00:00:00.0000, -9.400687850482027E+07, -1.185211660538891E+08, -7.400653280933127E+05,  2.451919789101689E+01, -2.070757481733335E+01, -1.272422041928513E+00,  5.046099124226731E+02,  1.512782459763579E+08,  9.932315832207873E-01,
2458251.500000000, A.D. 2018-May-13 00:00:00.0000, -9.187536736318497E+07, -1.202929807631779E+08, -8.496990811914653E+05,  2.482035767755038E+01, -2.030607998959894E+01, -1.265525481843721E+00,  5.049085824758271E+02,  1.513677850057239E+08,  1.079322959550184E+00,
2458252.500000000, A.D. 2018-May-14 00:00:00.0000, -8.971810041846679E+07, -1.220299515422520E+08, -9.587647486293241E+05,  2.511528994794130E+01, -1.990094242866743E+01, -1.259213074990647E+00,  5.052319717164508E+02,  1.514647346610612E+08,  1.164774256722058E+00,
2458253.500000000, A.D. 2018-May-15 00:00:00.0000, -8.753564001534975E+07, -1.237317516104667E+08, -1.067299788758069E+06,  2.540346631905490E+01, -1.949192041447772E+01, -1.253205872342959E+00,  5.055798954659454E+02,  1.515690395771188E+08,  1.249584474372463E+00,
2458254.500000000, A.D. 2018-May-16 00:00:00.0000, -8.532858669793226E+07, -1.253980412049617E+08, -1.175322348948762E+06,  2.568451899533271E+01, -1.907893722589731E+01, -1.247326702806780E+00,  5.059521684560948E+02,  1.516806442118827E+08,  1.333747377679013E+00,
2458255.500000000, A.D. 2018-May-17 00:00:00.0000, -8.309756803045264E+07, -1.270284783279832E+08, -1.282838187222831E+06,  2.595818116600991E+01, -1.866201062975687E+01, -1.241460581247765E+00,  5.063486022387214E+02,  1.517994920700106E+08,  1.417249014190861E+00,
2458256.500000000, A.D. 2018-May-18 00:00:00.0000, -8.084323178581260E+07, -1.286227251913658E+08, -1.389844837313414E+06,  2.622424740272742E+01, -1.824121567157842E+01, -1.235529098683874E+00,  5.067690037565666E+02,  1.519255252743923E+08,  1.500071516107825E+00,
2458257.500000000, A.D. 2018-May-19 00:00:00.0000, -7.856624158371431E+07, -1.301804522225316E+08, -1.496334146611616E+06,  2.648255408885406E+01, -1.781666513028464E+01, -1.229477467596370E+00,  5.072131744805682E+02,  1.520586843075124E+08,  1.582195003672961E+00,
2458258.500000000, A.D. 2018-May-20 00:00:00.0000, -7.626727375845964E+07, -1.317013407086093E+08, -1.602293950867668E+06,  2.673296857296424E+01, -1.738849625838989E+01, -1.223266635746964E+00,  5.076809097197178E+02,  1.521989078045503E+08,  1.663597157096079E+00,
2458259.500000000, A.D. 2018-May-21 00:00:00.0000, -7.394701510372113E+07, -1.331850846150619E+08, -1.707709223915100E+06,  2.697538069933382E+01, -1.695686371902343E+01, -1.216868702291170E+00,  5.081719983308674E+02,  1.523461324663827E+08,  1.744254998975949E+00,
2458260.500000000, A.D. 2018-May-22 00:00:00.0000, -7.160616112822901E+07, -1.346313918085850E+08, -1.812562862244129E+06,  2.720969800488754E+01, -1.652193419045964E+01, -1.210262908921603E+00,  5.086862224202659E+02,  1.525002929701062E+08,  1.824145042788833E+00,
2458261.500000000, A.D. 2018-May-23 00:00:00.0000, -6.924541743815781E+07, -1.360399158852071E+08, -1.916879012581140E+06,  2.743571418230870E+01, -1.608067376754787E+01, -1.205422664496836E+00,  5.092231579633893E+02,  1.526612621963667E+08,  1.900460343897803E+00,
